{
  "norad_id": 63572,
  "name": "STARLINK-33739",
  "history": [
    {
      "epoch": "2026-03-28T18:19:42.664800",
      "apogee_km": 483.91415982337,
      "perigee_km": 482.0236507022337,
      "latitude_deg": -36.82030687112339,
      "longitude_deg": -109.48592800018378,
      "semi_major_axis_km": 6861.105905262802,
      "eccentricity": 0.00013777,
      "inclination_deg": 43.0,
      "raan_deg": 214.3138,
      "arg_perigee_deg": 266.994,
      "mean_anomaly_deg": 93.0754,
      "mean_motion_rev_day": 15.27606781
    }
  ]
}